LEMUR-2-CHANUSIAK       
1 43697U 18088H   20154.86490374  .00001582  00000-0  67393-4 0  9995
2 43697  85.0388  87.1347 0015616 350.0298  10.0632 15.21980929 86618
LEMUR-2-ORZULAK         
1 43731U 18096N   20154.76510484  .00002452  00000-0  89984-4 0  9994
2 43731  97.4240 229.5280 0020592 173.1750 186.9775 15.28740917 84207
LEMUR-2-KOBYSZCZE       
1 43732U 18096P   20154.84566439  .00002402  00000-0  87824-4 0  9991
2 43732  97.4246 229.7515 0020699 172.9969 187.1564 15.28884007 84224
LEMUR-2-DULY            
1 43745U 18096AC  20154.85279324  .00002399  00000-0  87507-4 0  9993
2 43745  97.4239 229.7110 0020587 172.4904 187.6648 15.28963572 84235
LEMUR-2-VLADIMIR        
1 43746U 18096AD  20154.75176758  .00002442  00000-0  88899-4 0  9994
2 43746  97.4239 229.6834 0020619 173.1145 187.0382 15.29014356 84247
LEMUR-2-CHRISTINAHOLT   
1 43882U 18111G   20154.85617519 -.00000084  00000-0 -22802-5 0  9994
2 43882  97.7065  63.1241 0010478 298.5532  61.4635 14.96878329 78324
LEMUR-2-TINYKEV         
1 43883U 18111H   20154.83690425  .00000782  00000-0  73040-4 0  9992
2 43883  97.7070  63.1610 0010094 298.6960  61.3247 14.96951571 78320
LEMUR-2-REMY-COLTON     
1 43884U 18111J   20154.82422867  .00000939  00000-0  86617-4 0  9993
2 43884  97.7076  63.2146 0010033 296.9493  63.0703 14.97017731 78325
LEMUR-2-GUSTAVO         
1 43885U 18111K   20154.82169994  .00000854  00000-0  79332-4 0  9995
2 43885  97.7070  63.2161 0009950 295.4197  64.5994 14.96966386 78324
LEMUR-2-ZO              
1 43886U 18111L   20154.85900650 -.00000092  00000-0 -29066-5 0  9997
2 43886  97.7077  63.3525 0010217 295.4047  64.6117 14.97055040 78335
LEMUR-2-NATALIEMURRAY   
1 43887U 18111M   20154.81897594  .00000743  00000-0  69272-4 0  9999
2 43887  97.7074  63.4065 0010005 292.7355  67.2809 14.97174056 78336
LEMUR-2-SARAHBETTYBOO   
1 43888U 18111N   20154.79954982  .00000081  00000-0  12001-4 0  9995
2 43888  97.7082  63.4819 0010380 292.3511  67.6610 14.97219791 78339
LEMUR-2-DAISY-HARPER    
1 43889U 18111P   20154.70809941  .00000626  00000-0  58987-4 0  9999
2 43889  97.7094  63.4464 0009771 293.9940  66.0258 14.97310118 78318
LEMUR-2-JOHANLORAN      
1 44084U 19018G   20154.82026616  .00002446  00000-0  10665-3 0  9999
2 44084  97.4111 215.8639 0012321 213.1404 146.9062 15.23065924 65188
LEMUR-2-BEAUDACIOUS     
1 44085U 19018H   20154.82490601  .00001321  00000-0  59329-4 0  9991
2 44085  97.4108 215.8565 0012384 214.4403 145.6033 15.22857253 65182
LEMUR-2-ELHAM           
1 44086U 19018J   20154.84455431  .00002487  00000-0  10768-3 0  9993
2 44086  97.4117 216.0135 0012370 214.0470 145.9975 15.23292952 65193
LEMUR-2-VICTOR-ANDREW   
1 44087U 19018K   20154.83384829  .00002472  00000-0  10694-3 0  9997
2 44087  97.4118 216.0275 0012187 214.7164 145.3279 15.23328282 65190
LEMUR-2-LILLYJO         
1 44396U 19038L   20154.87134720  .00001258  00000-0  75234-4 0  9992
2 44396  97.5320 116.3163 0024662 172.8791 187.2795 15.12652963 50374
LEMUR-2-WANLI           
1 44402U 19038S   20154.88576336  .00001292  00000-0  77325-4 0  9995
2 44402  97.5325 116.3239 0024761 173.2156 186.9414 15.12588565 50382
LEMUR-2-MORAG           
1 44403U 19038T   20154.88044943  .00001427  00000-0  84893-4 0  9998
2 44403  97.5360 116.4600 0023402 176.4237 183.7165 15.12653224 50384
LEMUR-2-DUSTINTHEWIND   
1 44405U 19038V   20154.85972937  .00000941  00000-0  57136-4 0  9990
2 44405  97.5316 116.3093 0024624 172.3739 187.7871 15.12714585 50387
LEMUR-2-ALEX-MADDY      
1 44407U 19038X   20154.83196025  .00000773  00000-0  48057-4 0  9991
2 44407  97.5362 116.3687 0023497 176.9988 183.1388 15.12408484 50361
LEMUR-2-EJATTA          
1 44409U 19038Z   20154.83639352  .00001538  00000-0  90594-4 0  9991
2 44409  97.5310 116.3229 0024522 172.0265 188.1360 15.12869299 50385
LEMUR-2-GREGROBINSON    
1 44411U 19038AB  20154.89600314  .00001527  00000-0  90763-4 0  9992
2 44411  97.5369 116.4781 0023526 177.1670 182.9698 15.12586166 50054
LEMUR-2-YNDRD           
1 44413U 19038AD  20154.88820444  .00000761  00000-0  47373-4 0  9999
2 44413  97.5356 116.4162 0023345 176.5449 183.5947 15.12410343 50384
LEMUR-2-JPGSQUARED      
1 44855U 19089D   20154.46689961  .00000803  00000-0  71624-4 0  9999
2 44855  36.9672 187.2826 0006932 297.7126  62.2912 14.98897489 26107
LEMUR-2-HIMOMANDDAD     
1 44860U 19089J   20154.48227142  .00000625  00000-0  57378-4 0  9998
2 44860  36.9662 187.4048 0007093 295.1770  64.8241 14.98753424 26109
LEMUR-2-PAPPY           
1 44861U 19089K   20154.47640613  .00000082  00000-0  13090-4 0  9990
2 44861  36.9659 187.3554 0007092 295.5128  64.4881 14.98797734 26048
